start=new Date('2022-05-03T00:00:00.000Z').valueOf();
sats=[{"SITE":"AFETR","MEAN_MOTION_DOT":"0.00000775","ELEMENT_SET_NO":"999","DECAY_DATE":null,"REV_AT_EPOCH":"9456","MEAN_MOTION":"15.06388495","INCLINATION":"53.0553","RCS_SIZE":"LARGE","OBJECT_TYPE":"PAYLOAD","NORAD_CAT_ID":"46157","RA_OF_ASC_NODE":"112.8087","MEAN_ELEMENT_THEORY":"SGP4","EPHEMERIS_TYPE":"0","EPOCH":"2022-05-02T16:58:29.392896","MEAN_ANOMALY":"321.2582","LAUNCH_DATE":"2020-08-18","APOAPSIS":"548.750","PERIOD":"95.593","TLE_LINE2":"2 46157  53.0553 112.8087 0002168  38.8562 321.2582 15.06388495 94568","SEMIMAJOR_AXIS":"6925.384","GP_ID":"202553395","PERIAPSIS":"545.747","COUNTRY_CODE":"US","CENTER_NAME":"EARTH","REF_FRAME":"TEME","TIME_SYSTEM":"UTC","TLE_LINE1":"1 46157U 20057AS  22122.70728464  .00000775  00000-0  70927-4 0  9992","OBJECT_NAME":"STARLINK-1587","MEAN_MOTION_DDOT":"0.0000000000000","OBJECT_ID":"2020-057AS","ECCENTRICITY":"0.00021680","CLASSIFICATION_TYPE":"U","BSTAR":"0.00007092700000","FILE":"3426306","ARG_OF_PERICENTER":"38.8562"},{"APOAPSIS":"548.508","PERIOD":"95.593","SEMIMAJOR_AXIS":"6925.398","TLE_LINE2":"2 46158  53.0546 112.8301 0001798  56.2066 303.9094 15.06384003 95827","GP_ID":"202554646","MEAN_ELEMENT_THEORY":"SGP4","EPHEMERIS_TYPE":"0","EPOCH":"2022-05-02T16:53:11.329440","MEAN_ANOMALY":"303.9094","LAUNCH_DATE":"2020-08-18","RCS_SIZE":"LARGE","NORAD_CAT_ID":"46158","OBJECT_TYPE":"PAYLOAD","RA_OF_ASC_NODE":"112.8301","SITE":"AFETR","MEAN_MOTION_DOT":"0.00001022","INCLINATION":"53.0546","DECAY_DATE":null,"REV_AT_EPOCH":"9582","ELEMENT_SET_NO":"999","MEAN_MOTION":"15.06384003","FILE":"3426306","ARG_OF_PERICENTER":"56.2066","MEAN_MOTION_DDOT":"0.0000000000000","OBJECT_ID":"2020-057AT","ECCENTRICITY":"0.00017980","CLASSIFICATION_TYPE":"U","BSTAR":"0.00008754000000","TLE_LINE1":"1 46158U 20057AT  22122.70360335  .00001022  00000-0  87540-4 0  9997","TIME_SYSTEM":"UTC","OBJECT_NAME":"STARLINK-1589","PERIAPSIS":"546.017","REF_FRAME":"TEME","COUNTRY_CODE":"US","CENTER_NAME":"EARTH"},{"OBJECT_NAME":"STARLINK-1595","TLE_LINE1":"1 46159U 20057AU  22122.81049153  .00001236  00000-0  10188-3 0  9992","TIME_SYSTEM":"UTC","COUNTRY_CODE":"US","REF_FRAME":"TEME","CENTER_NAME":"EARTH","PERIAPSIS":"546.037","ARG_OF_PERICENTER":"51.9201","FILE":"3426306","BSTAR":"0.00010188000000","CLASSIFICATION_TYPE":"U","OBJECT_ID":"2020-057AU","ECCENTRICITY":"0.00017250","MEAN_MOTION_DDOT":"0.0000000000000","RA_OF_ASC_NODE":"152.3488","OBJECT_TYPE":"PAYLOAD","NORAD_CAT_ID":"46159","RCS_SIZE":"LARGE","DECAY_DATE":null,"REV_AT_EPOCH":"9527","MEAN_MOTION":"15.06394233","ELEMENT_SET_NO":"999","INCLINATION":"53.0540","SITE":"AFETR","MEAN_MOTION_DOT":"0.00001236","GP_ID":"202554892","TLE_LINE2":"2 46159  53.0540 152.3488 0001725  51.9201 308.1944 15.06394233 95276","SEMIMAJOR_AXIS":"6925.366","PERIOD":"95.593","APOAPSIS":"548.426","LAUNCH_DATE":"2020-08-18","MEAN_ANOMALY":"308.1944","EPHEMERIS_TYPE":"0","EPOCH":"2022-05-02T19:27:06.468192","MEAN_ELEMENT_THEORY":"SGP4"},{"MEAN_ELEMENT_THEORY":"SGP4","EPHEMERIS_TYPE":"0","EPOCH":"2022-05-02T17:38:18.673440","MEAN_ANOMALY":"321.7582","LAUNCH_DATE":"2020-08-18","APOAPSIS":"548.772","PERIOD":"95.592","GP_ID":"202553646","TLE_LINE2":"2 46160  53.0522 132.6775 0002249  38.3566 321.7582 15.06399725 95532","SEMIMAJOR_AXIS":"6925.349","MEAN_MOTION_DOT":"0.00005169","SITE":"AFETR","ELEMENT_SET_NO":"999","DECAY_DATE":null,"REV_AT_EPOCH":"9553","INCLINATION":"53.0522","MEAN_MOTION":"15.06399725","RCS_SIZE":"LARGE","NORAD_CAT_ID":"46160","OBJECT_TYPE":"PAYLOAD","RA_OF_ASC_NODE":"132.6775","MEAN_MOTION_DDOT":"0.0000000000000","ECCENTRICITY":"0.00022490","OBJECT_ID":"2020-057AV","CLASSIFICATION_TYPE":"U","BSTAR":"0.00036566000000","FILE":"3426306","ARG_OF_PERICENTER":"38.3566","PERIAPSIS":"545.657","COUNTRY_CODE":"US","REF_FRAME":"TEME","CENTER_NAME":"EARTH","TIME_SYSTEM":"UTC","TLE_LINE1":"1 46160U 20057AV  22122.73493835  .00005169  00000-0  36566-3 0  9992","OBJECT_NAME":"STARLINK-1598"},{"NORAD_CAT_ID":"46161","OBJECT_TYPE":"PAYLOAD","RCS_SIZE":"LARGE","RA_OF_ASC_NODE":"133.9661","ELEMENT_SET_NO":"999","DECAY_DATE":null,"REV_AT_EPOCH":"9549","INCLINATION":"53.0525","MEAN_MOTION":"15.06398544","SITE":"AFETR","MEAN_MOTION_DOT":"0.00001432","APOAPSIS":"548.406","SEMIMAJOR_AXIS":"6925.353","TLE_LINE2":"2 46161  53.0525 133.9661 0001716  59.7655 300.3503 15.06398544 95497","GP_ID":"202520226","PERIOD":"95.592","EPOCH":"2022-05-02T10:44:17.304864","EPHEMERIS_TYPE":"0","MEAN_ELEMENT_THEORY":"SGP4","LAUNCH_DATE":"2020-08-18","MEAN_ANOMALY":"300.3503","OBJECT_NAME":"STARLINK-1600","TIME_SYSTEM":"UTC","TLE_LINE1":"1 46161U 20057AW  22122.44742251  .00001432  00000-0  11505-3 0  9995","PERIAPSIS":"546.030","COUNTRY_CODE":"US","REF_FRAME":"TEME","CENTER_NAME":"EARTH","FILE":"3425830","ARG_OF_PERICENTER":"59.7655","ECCENTRICITY":"0.00017160","OBJECT_ID":"2020-057AW","MEAN_MOTION_DDOT":"0.0000000000000","BSTAR":"0.00011505000000","CLASSIFICATION_TYPE":"U"},{"CLASSIFICATION_TYPE":"U","BSTAR":"-0.00025891000000","MEAN_MOTION_DDOT":"0.0000000000000","ECCENTRICITY":"0.00019700","OBJECT_ID":"2020-057AX","ARG_OF_PERICENTER":"48.3391","FILE":"3426306","CENTER_NAME":"EARTH","COUNTRY_CODE":"US","REF_FRAME":"TEME","PERIAPSIS":"545.849","TLE_LINE1":"1 46162U 20057AX  22122.71650636 -.00004136  00000-0 -25891-3 0  9990","TIME_SYSTEM":"UTC","OBJECT_NAME":"STARLINK-1603","MEAN_ANOMALY":"311.7767","LAUNCH_DATE":"2020-08-18","MEAN_ELEMENT_THEORY":"SGP4","EPOCH":"2022-05-02T17:11:46.149504","EPHEMERIS_TYPE":"0","PERIOD":"95.592","SEMIMAJOR_AXIS":"6925.348","TLE_LINE2":"2 46162  53.0556 132.7734 0001970  48.3391 311.7767 15.06400040 95542","GP_ID":"202554146","APOAPSIS":"548.578","SITE":"AFETR","MEAN_MOTION_DOT":"-0.00004136","DECAY_DATE":null,"REV_AT_EPOCH":"9554","ELEMENT_SET_NO":"999","INCLINATION":"53.0556","MEAN_MOTION":"15.06400040","RA_OF_ASC_NODE":"132.7734","RCS_SIZE":"LARGE","OBJECT_TYPE":"PAYLOAD","NORAD_CAT_ID":"46162"},{"RA_OF_ASC_NODE":"114.2553","NORAD_CAT_ID":"46163","OBJECT_TYPE":"PAYLOAD","RCS_SIZE":"LARGE","DECAY_DATE":null,"ELEMENT_SET_NO":"999","REV_AT_EPOCH":"9451","INCLINATION":"53.0524","MEAN_MOTION":"15.06398389","MEAN_MOTION_DOT":"0.00001511","SITE":"AFETR","TLE_LINE2":"2 46163  53.0524 114.2553 0001974  45.9787 314.1365 15.06398389 94517","GP_ID":"202519225","SEMIMAJOR_AXIS":"6925.353","PERIOD":"95.592","APOAPSIS":"548.586","LAUNCH_DATE":"2020-08-18","MEAN_ANOMALY":"314.1365","EPHEMERIS_TYPE":"0","EPOCH":"2022-05-02T09:11:24.170496","MEAN_ELEMENT_THEORY":"SGP4","OBJECT_NAME":"STARLINK-1610","TIME_SYSTEM":"UTC","TLE_LINE1":"1 46163U 20057AY  22122.38291864  .00001511  00000-0  12035-3 0  9996","REF_FRAME":"TEME","COUNTRY_CODE":"US","CENTER_NAME":"EARTH","PERIAPSIS":"545.851","ARG_OF_PERICENTER":"45.9787","FILE":"3425830","BSTAR":"0.00012035000000","CLASSIFICATION_TYPE":"U","OBJECT_ID":"2020-057AY","ECCENTRICITY":"0.00019740","MEAN_MOTION_DDOT":"0.0000000000000"},{"COUNTRY_CODE":"US","REF_FRAME":"TEME","CENTER_NAME":"EARTH","PERIAPSIS":"546.086","OBJECT_NAME":"STARLINK-1612","TLE_LINE1":"1 46164U 20057AZ  22122.71096423  .00000484  00000-0  51398-4 0  9992","TIME_SYSTEM":"UTC","BSTAR":"0.00005139800000","CLASSIFICATION_TYPE":"U","OBJECT_ID":"2020-057AZ","ECCENTRICITY":"0.00016450","MEAN_MOTION_DDOT":"0.0000000000000","ARG_OF_PERICENTER":"58.0024","FILE":"3426306","INCLINATION":"53.0540","DECAY_DATE":null,"REV_AT_EPOCH":"9582","ELEMENT_SET_NO":"999","MEAN_MOTION":"15.06396270","SITE":"AFETR","MEAN_MOTION_DOT":"0.00000484","RA_OF_ASC_NODE":"112.7836","NORAD_CAT_ID":"46164","OBJECT_TYPE":"PAYLOAD","RCS_SIZE":"LARGE","LAUNCH_DATE":"2020-08-18","MEAN_ANOMALY":"302.1125","EPOCH":"2022-05-02T17:03:47.309472","EPHEMERIS_TYPE":"0","MEAN_ELEMENT_THEORY":"SGP4","GP_ID":"202553146","TLE_LINE2":"2 46164  53.0540 112.7836 0001645  58.0024 302.1125 15.06396270 95820","SEMIMAJOR_AXIS":"6925.360","PERIOD":"95.592","APOAPSIS":"548.364"},{"ECCENTRICITY":"0.00027370","OBJECT_ID":"2020-057BA","MEAN_MOTION_DDOT":"0.0000000000000","BSTAR":"0.00064235000000","CLASSIFICATION_TYPE":"U","FILE":"3426306","ARG_OF_PERICENTER":"42.7070","PERIAPSIS":"531.711","COUNTRY_CODE":"US","CENTER_NAME":"EARTH","REF_FRAME":"TEME","OBJECT_NAME":"STARLINK-1613","TIME_SYSTEM":"UTC","TLE_LINE1":"1 46165U 20057BA  22122.81285332  .00010528  00000-0  64235-3 0  9996","EPOCH":"2022-05-02T19:30:30.526848","EPHEMERIS_TYPE":"0","MEAN_ELEMENT_THEORY":"SGP4","LAUNCH_DATE":"2020-08-18","MEAN_ANOMALY":"317.4133","APOAPSIS":"535.495","SEMIMAJOR_AXIS":"6911.738","TLE_LINE2":"2 46165  53.0513 150.4868 0002737  42.7070 317.4133 15.10851813 94044","GP_ID":"202553396","PERIOD":"95.310","DECAY_DATE":null,"ELEMENT_SET_NO":"999","REV_AT_EPOCH":"9404","MEAN_MOTION":"15.10851813","INCLINATION":"53.0513","MEAN_MOTION_DOT":"0.00010528","SITE":"AFETR","NORAD_CAT_ID":"46165","OBJECT_TYPE":"PAYLOAD","RCS_SIZE":"LARGE","RA_OF_ASC_NODE":"150.4868"},{"REV_AT_EPOCH":"9397","DECAY_DATE":null,"ELEMENT_SET_NO":"999","MEAN_MOTION":"15.06390192","INCLINATION":"53.0545","MEAN_MOTION_DOT":"0.00000562","SITE":"AFETR","OBJECT_TYPE":"PAYLOAD","NORAD_CAT_ID":"46166","RCS_SIZE":"LARGE","RA_OF_ASC_NODE":"153.7478","EPHEMERIS_TYPE":"0","EPOCH":"2022-05-02T11:55:57.299808","MEAN_ELEMENT_THEORY":"SGP4","LAUNCH_DATE":"2020-08-18","MEAN_ANOMALY":"311.9657","APOAPSIS":"548.421","GP_ID":"202519976","TLE_LINE2":"2 46166  53.0545 153.7478 0001700  48.1477 311.9657 15.06390192 93977","SEMIMAJOR_AXIS":"6925.379","PERIOD":"95.593","PERIAPSIS":"546.066","COUNTRY_CODE":"US","REF_FRAME":"TEME","CENTER_NAME":"EARTH","OBJECT_NAME":"STARLINK-1615","TLE_LINE1":"1 46166U 20057BB  22122.49719097  .00000562  00000-0  56609-4 0  9995","TIME_SYSTEM":"UTC","OBJECT_ID":"2020-057BB","ECCENTRICITY":"0.00017000","MEAN_MOTION_DDOT":"0.0000000000000","BSTAR":"0.00005660900000","CLASSIFICATION_TYPE":"U","FILE":"3425830","ARG_OF_PERICENTER":"48.1477"}];
